{
  "type": "FeatureCollection",
  "features": [
    {
      "type": "Feature",
      "properties": {
        "norad_id": 63772,
        "name": "BIOMASS",
        "group": "resource",
        "lat": 65.44836654478348,
        "lon": 147.69776598857158,
        "alt_km": 661.7745334845267,
        "timestamp": "2025-12-06T16:45:42.384765+00:00",
        "meta_object_name": "BIOMASS",
        "meta_object_id": "2025-090A",
        "meta_epoch": "2025-12-06T06:38:25.854432",
        "meta_mean_motion": 14.67527447,
        "meta_eccentricity": 0.00011659,
        "meta_inclination": 98.0712,
        "meta_ra_of_asc_node": 165.3798,
        "meta_arg_of_pericenter": 63.9111,
        "meta_mean_anomaly": 296.2213,
        "meta_ephemeris_type": 0,
        "meta_classification_type": "U",
        "meta_norad_cat_id": 63772,
        "meta_element_set_no": 999,
        "meta_rev_at_epoch": 3239,
        "meta_bstar": -0.00051613967,
        "meta_mean_motion_dot": -2.972e-05,
        "meta_mean_motion_ddot": 0,
        "tle_line1": "1 63772U 25090A   25340.27668813 -.00002972  00000+0 -51614-3 0  9997",
        "tle_line2": "2 63772  98.0712 165.3798 0001165  63.9111 296.2213 14.67527447 32396"
      },
      "geometry": {
        "type": "Point",
        "coordinates": [
          147.69776598857158,
          65.44836654478348
        ]
      }
    },
    {
      "type": "Feature",
      "properties": {
        "norad_id": 64694,
        "name": "GOSAT-GW (IBUKI GW)",
        "group": "resource",
        "lat": -80.06975761570125,
        "lon": -29.820307244982406,
        "alt_km": 677.1471375720157,
        "timestamp": "2025-12-06T16:45:42.384776+00:00",
        "meta_object_name": "GOSAT-GW (IBUKI GW)",
        "meta_object_id": "2025-141A",
        "meta_epoch": "2025-12-05T23:08:42.709344",
        "meta_mean_motion": 14.67572391,
        "meta_eccentricity": 0.00014336,
        "meta_inclination": 98.042,
        "meta_ra_of_asc_node": 275.6001,
        "meta_arg_of_pericenter": 84.7935,
        "meta_mean_anomaly": 275.3433,
        "meta_ephemeris_type": 0,
        "meta_classification_type": "U",
        "meta_norad_cat_id": 64694,
        "meta_element_set_no": 999,
        "meta_rev_at_epoch": 2350,
        "meta_bstar": 0.00038181618,
        "meta_mean_motion_dot": 2.12e-05,
        "meta_mean_motion_ddot": 0,
        "tle_line1": "1 64694U 25141A   25339.96438321  .00002120  00000+0  38182-3 0  9999",
        "tle_line2": "2 64694  98.0420 275.6001 0001433  84.7935 275.3433 14.67572391 23504"
      },
      "geometry": {
        "type": "Point",
        "coordinates": [
          -29.820307244982406,
          -80.06975761570125
        ]
      }
    },
    {
      "type": "Feature",
      "properties": {
        "norad_id": 64876,
        "name": "IONOSFERA-M 3",
        "group": "resource",
        "lat": -19.63631694230985,
        "lon": 119.64876973223939,
        "alt_km": 826.6898705532631,
        "timestamp": "2025-12-06T16:45:42.384786+00:00",
        "meta_object_name": "IONOSFERA-M 3",
        "meta_object_id": "2025-155A",
        "meta_epoch": "2025-12-06T07:22:41.575296",
        "meta_mean_motion": 14.2143863,
        "meta_eccentricity": 0.00023622,
        "meta_inclination": 98.5775,
        "meta_ra_of_asc_node": 302.3559,
        "meta_arg_of_pericenter": 70.1929,
        "meta_mean_anomaly": 289.9503,
        "meta_ephemeris_type": 0,
        "meta_classification_type": "U",
        "meta_norad_cat_id": 64876,
        "meta_element_set_no": 999,
        "meta_rev_at_epoch": 1900,
        "meta_bstar": 9.9540493e-05,
        "meta_mean_motion_dot": 1.75e-06,
        "meta_mean_motion_ddot": 0,
        "tle_line1": "1 64876U 25155A   25340.30742564  .00000175  00000+0  99540-4 0  9997",
        "tle_line2": "2 64876  98.5775 302.3559 0002362  70.1929 289.9503 14.21438630 19000"
      },
      "geometry": {
        "type": "Point",
        "coordinates": [
          119.64876973223939,
          -19.63631694230985
        ]
      }
    },
    {
      "type": "Feature",
      "properties": {
        "norad_id": 64877,
        "name": "IONOSFERA-M 4",
        "group": "resource",
        "lat": 20.007243609247883,
        "lon": -60.49491980761091,
        "alt_km": 819.6666851541477,
        "timestamp": "2025-12-06T16:45:42.384796+00:00",
        "meta_object_name": "IONOSFERA-M 4",
        "meta_object_id": "2025-155B",
        "meta_epoch": "2025-12-06T04:50:28.118112",
        "meta_mean_motion": 14.21439557,
        "meta_eccentricity": 0.00017233,
        "meta_inclination": 98.5773,
        "meta_ra_of_asc_node": 302.1728,
        "meta_arg_of_pericenter": 70.1358,
        "meta_mean_anomaly": 290.0005,
        "meta_ephemeris_type": 0,
        "meta_classification_type": "U",
        "meta_norad_cat_id": 64877,
        "meta_element_set_no": 999,
        "meta_rev_at_epoch": 1898,
        "meta_bstar": 0.00010157422,
        "meta_mean_motion_dot": 1.79e-06,
        "meta_mean_motion_ddot": 0,
        "tle_line1": "1 64877U 25155B   25340.20171433  .00000179  00000+0  10157-3 0  9998",
        "tle_line2": "2 64877  98.5773 302.1728 0001723  70.1358 290.0005 14.21439557 18986"
      },
      "geometry": {
        "type": "Point",
        "coordinates": [
          -60.49491980761091,
          20.007243609247883
        ]
      }
    },
    {
      "type": "Feature",
      "properties": {
        "norad_id": 64899,
        "name": "MICROCARB",
        "group": "resource",
        "lat": 23.624486346005046,
        "lon": -120.33145359626761,
        "alt_km": 642.42106794756,
        "timestamp": "2025-12-06T16:45:42.384807+00:00",
        "meta_object_name": "MICROCARB",
        "meta_object_id": "2025-156A",
        "meta_epoch": "2025-12-06T04:38:08.848608",
        "meta_mean_motion": 14.72040251,
        "meta_eccentricity": 0.00166946,
        "meta_inclination": 98.003,
        "meta_ra_of_asc_node": 55.6434,
        "meta_arg_of_pericenter": 165.0758,
        "meta_mean_anomaly": 195.0946,
        "meta_ephemeris_type": 0,
        "meta_classification_type": "U",
        "meta_norad_cat_id": 64899,
        "meta_element_set_no": 999,
        "meta_rev_at_epoch": 1957,
        "meta_bstar": 0.0002290977,
        "meta_mean_motion_dot": 1.392e-05,
        "meta_mean_motion_ddot": 0,
        "tle_line1": "1 64899U 25156A   25340.19315797  .00001392  00000+0  22910-3 0  9992",
        "tle_line2": "2 64899  98.0030  55.6434 0016694 165.0758 195.0946 14.72040251 19575"
      },
      "geometry": {
        "type": "Point",
        "coordinates": [
          -120.33145359626761,
          23.624486346005046
        ]
      }
    },
    {
      "type": "Feature",
      "properties": {
        "norad_id": 64900,
        "name": "CO3D 3",
        "group": "resource",
        "lat": -51.64591723527386,
        "lon": -132.3460387320714,
        "alt_km": 512.5917957494312,
        "timestamp": "2025-12-06T16:45:42.384817+00:00",
        "meta_object_name": "CO3D 3",
        "meta_object_id": "2025-156B",
        "meta_epoch": "2025-12-06T06:15:54.788256",
        "meta_mean_motion": 15.20214624,
        "meta_eccentricity": 0.00013685,
        "meta_inclination": 97.4347,
        "meta_ra_of_asc_node": 56.7217,
        "meta_arg_of_pericenter": 116.3134,
        "meta_mean_anomaly": 243.8242,
        "meta_ephemeris_type": 0,
        "meta_classification_type": "U",
        "meta_norad_cat_id": 64900,
        "meta_element_set_no": 999,
        "meta_rev_at_epoch": 2022,
        "meta_bstar": 0.00050332501,
        "meta_mean_motion_dot": 0.00010848,
        "meta_mean_motion_ddot": 0,
        "tle_line1": "1 64900U 25156B   25340.26105079  .00010848  00000+0  50333-3 0  9999",
        "tle_line2": "2 64900  97.4347  56.7217 0001368 116.3134 243.8242 15.20214624 20228"
      },
      "geometry": {
        "type": "Point",
        "coordinates": [
          -132.3460387320714,
          -51.64591723527386
        ]
      }
    },
    {
      "type": "Feature",
      "properties": {
        "norad_id": 64901,
        "name": "CO3D 4",
        "group": "resource",
        "lat": -50.786997995249564,
        "lon": -132.05602184565706,
        "alt_km": 511.4459014517706,
        "timestamp": "2025-12-06T16:45:42.384826+00:00",
        "meta_object_name": "CO3D 4",
        "meta_object_id": "2025-156C",
        "meta_epoch": "2025-12-06T06:16:07.803552",
        "meta_mean_motion": 15.20202687,
        "meta_eccentricity": 0.00010549,
        "meta_inclination": 97.4346,
        "meta_ra_of_asc_node": 56.722,
        "meta_arg_of_pericenter": 229.664,
        "meta_mean_anomaly": 130.4503,
        "meta_ephemeris_type": 0,
        "meta_classification_type": "U",
        "meta_norad_cat_id": 64901,
        "meta_element_set_no": 999,
        "meta_rev_at_epoch": 2022,
        "meta_bstar": 0.0004899771,
        "meta_mean_motion_dot": 0.00010554,
        "meta_mean_motion_ddot": 0,
        "tle_line1": "1 64901U 25156C   25340.26120143  .00010554  00000+0  48998-3 0  9997",
        "tle_line2": "2 64901  97.4346  56.7220 0001054 229.6640 130.4503 15.20202687 20221"
      },
      "geometry": {
        "type": "Point",
        "coordinates": [
          -132.05602184565706,
          -50.786997995249564
        ]
      }
    }
  ]
}